KAITUO 1B               
1 40912U 15049P   17273.44988208  .00005102  00000-0  25371-3 0  9997
2 40912  97.4529 279.5901 0015336 189.3967 309.3912 15.17976955112251
TIANWANG 1C (TW-1C)     
1 40926U 15051B   17273.56380897  .00021833  00000-0  47097-3 0  9996
2 40926  97.2203 312.3546 0012545 139.9440  16.6091 15.44493116113171
TIANWANG 1B (TW-1B)     
1 40927U 15051C   17273.38076478  .00023307  00000-0  52234-3 0  9991
2 40927  97.2285 312.1434 0011931 149.6939 337.3671 15.43353964113087
TIANWANG 1A (TW-1A)     
1 40928U 15051D   17273.46713091  .00010078  00000-0  28048-3 0  9997
2 40928  97.2177 307.3839 0012652 171.4448 296.8118 15.36931611112865
LAPAN-A2 (IO-86)        
1 40931U 15052B   17273.54948676  .00000827  00000-0  26077-4 0  9992
2 40931   5.9975 201.4143 0014128 292.9987  66.8708 14.76545680108562
LQSAT                   
1 40958U 15057A   17273.54069258  .00000131  00000-0  28125-4 0  9990
2 40958  97.9688 346.9761 0019729  89.9284 270.4190 14.72989274106620
CHUBUSAT-2              
1 41338U 16012B   17273.10939429  .00000801  00000-0  56361-4 0  9990
2 41338  31.0027 165.8613 0013809  17.5879 342.5233 14.99817609 88756
CHUBUSAT-3              
1 41339U 16012C   17273.08995695  .00001293  00000-0  94692-4 0  9990
2 41339  31.0100 164.9575 0013471  24.0508 336.0737 15.00018510 88735
OUFTI-1                 
1 41458U 16025C   17272.87457898  .00004856  00000-0  26023-3 0  9990
2 41458  98.1738 316.4244 0172225 299.9432  58.4796 15.03646399 78304
E-ST@R-II               
1 41459U 16025D   17273.24019352  .00004174  00000-0  22641-3 0  9997
2 41459  98.1754 316.7391 0171300 298.8791  59.5341 15.03465508 78352
AAUSAT 4                
1 41460U 16025E   17273.50354453  .00006442  00000-0  34522-3 0  9993
2 41460  98.1694 317.1887 0163787 295.8668  62.5752 15.04529867 78420
NUSAT 1 (LO-87)         
1 41557U 16033B   17273.30614543  .00003650  00000-0  13834-3 0  9997
2 41557  97.4570 352.8098 0013997   3.3637 356.7693 15.27451025 74475
BEESAT-4                
1 41619U 16040W   17272.73429898  .00004528  00000-0  20586-3 0  9994
2 41619  97.4521 334.0744 0013452  66.8546 293.4106 15.21174910 58487
PRATHAM                 
1 41783U 16059A   17272.74518602  .00000154  00000-0  39283-4 0  9995
2 41783  98.1562 332.9782 0033459 190.8182 169.2304 14.62863067 53885
ALSAT 1N                
1 41789U 16059G   17273.46721040  .00000107  00000-0  29476-4 0  9994
2 41789  98.1567 334.3952 0028731 181.0773 179.0387 14.64080983 54012
NAYIF-1 (EO-88)         
1 42017U 17008BX  17273.15237865  .00004432  00000-0  18907-3 0  9998
2 42017  97.4848 334.3684 0005968 199.4562 160.6448 15.23429103 34467
LILACSAT-1              
1 42725U 98067ME  17273.46163315  .00025953  00000-0  34227-3 0  9994
2 42725  51.6382 231.7010 0005914 357.2866   2.8094 15.58208490 19877
MAX VALIER SAT          
1 42778U 17036P   17272.72623118  .00003170  00000-0  14753-3 0  9998
2 42778  97.4413 331.2909 0011201 259.6132 100.3841 15.20620139 14919
